start=new Date('2022-01-19T00:00:00.000Z').valueOf();
sats=[{"MEAN_MOTION":"15.06399776","EPHEMERIS_TYPE":"0","OBJECT_NAME":"STARLINK-2156","OBJECT_TYPE":"PAYLOAD","DECAY_DATE":null,"MEAN_ANOMALY":"270.6819","REV_AT_EPOCH":"5017","EPOCH":"2022-01-18T15:53:13.128000","PERIOD":"95.592","ARG_OF_PERICENTER":"89.4332","APOAPSIS":"548.193","INCLINATION":"53.0550","MEAN_MOTION_DOT":"-0.00000150","TLE_LINE1":"1 47742U 21017W   22018.66195750 -.00000150  00000-0  88065-5 0  9996","RCS_SIZE":"LARGE","CENTER_NAME":"EARTH","MEAN_MOTION_DDOT":"0.0000000000000","TIME_SYSTEM":"UTC","REF_FRAME":"TEME","BSTAR":"0.00000880650000","PERIAPSIS":"546.236","TLE_LINE2":"2 47742  53.0550 144.9007 0001413  89.4332 270.6819 15.06399776 50176","OBJECT_ID":"2021-017W","ELEMENT_SET_NO":"999","SEMIMAJOR_AXIS":"6925.349","GP_ID":"194154551","SITE":"AFETR","MEAN_ELEMENT_THEORY":"SGP4","COUNTRY_CODE":"US","NORAD_CAT_ID":"47742","CLASSIFICATION_TYPE":"U","FILE":"3276875","RA_OF_ASC_NODE":"144.9007","ECCENTRICITY":"0.00014130","LAUNCH_DATE":"2021-03-04"},{"OBJECT_ID":"2021-017X","ELEMENT_SET_NO":"999","BSTAR":"-0.00003106200000","TLE_LINE2":"2 47743  53.0559 144.4682 0001557  86.9815 273.1352 15.06398395 50162","PERIAPSIS":"546.140","MEAN_ELEMENT_THEORY":"SGP4","SITE":"AFETR","GP_ID":"194154802","COUNTRY_CODE":"US","SEMIMAJOR_AXIS":"6925.353","FILE":"3276875","NORAD_CAT_ID":"47743","CLASSIFICATION_TYPE":"U","RA_OF_ASC_NODE":"144.4682","ECCENTRICITY":"0.00015570","LAUNCH_DATE":"2021-03-04","MEAN_ANOMALY":"273.1352","DECAY_DATE":null,"OBJECT_NAME":"STARLINK-2157","EPHEMERIS_TYPE":"0","MEAN_MOTION":"15.06398395","OBJECT_TYPE":"PAYLOAD","APOAPSIS":"548.297","PERIOD":"95.592","ARG_OF_PERICENTER":"86.9815","MEAN_MOTION_DOT":"-0.00000744","INCLINATION":"53.0559","REV_AT_EPOCH":"5016","EPOCH":"2022-01-18T18:05:54.637440","TLE_LINE1":"1 47743U 21017X   22018.75410460 -.00000744  00000-0 -31062-4 0  9999","RCS_SIZE":"LARGE","REF_FRAME":"TEME","MEAN_MOTION_DDOT":"0.0000000000000","TIME_SYSTEM":"UTC","CENTER_NAME":"EARTH"},{"MEAN_ELEMENT_THEORY":"SGP4","SITE":"AFETR","GP_ID":"194155547","COUNTRY_CODE":"US","SEMIMAJOR_AXIS":"6925.379","OBJECT_ID":"2021-017Y","ELEMENT_SET_NO":"999","BSTAR":"-0.00009426800000","TLE_LINE2":"2 47744  53.0546 143.9848 0001387  83.9361 276.1786 15.06389954 50201","PERIAPSIS":"546.284","RA_OF_ASC_NODE":"143.9848","LAUNCH_DATE":"2021-03-04","ECCENTRICITY":"0.00013870","FILE":"3276875","NORAD_CAT_ID":"47744","CLASSIFICATION_TYPE":"U","APOAPSIS":"548.205","ARG_OF_PERICENTER":"83.9361","PERIOD":"95.593","MEAN_MOTION_DOT":"-0.00001685","INCLINATION":"53.0546","REV_AT_EPOCH":"5020","EPOCH":"2022-01-18T20:45:09.886464","MEAN_ANOMALY":"276.1786","DECAY_DATE":null,"OBJECT_NAME":"STARLINK-2158","EPHEMERIS_TYPE":"0","MEAN_MOTION":"15.06389954","OBJECT_TYPE":"PAYLOAD","RCS_SIZE":"LARGE","REF_FRAME":"TEME","TIME_SYSTEM":"UTC","MEAN_MOTION_DDOT":"0.0000000000000","CENTER_NAME":"EARTH","TLE_LINE1":"1 47744U 21017Y   22018.86469776 -.00001685  00000-0 -94268-4 0  9998"},{"SEMIMAJOR_AXIS":"6925.378","COUNTRY_CODE":"US","MEAN_ELEMENT_THEORY":"SGP4","GP_ID":"194155281","SITE":"AFETR","TLE_LINE2":"2 47745  53.0545 154.7542 0001693  86.0183 274.1000 15.06390351 49981","PERIAPSIS":"546.071","BSTAR":"-0.00009305100000","ELEMENT_SET_NO":"999","OBJECT_ID":"2021-017Z","LAUNCH_DATE":"2021-03-04","ECCENTRICITY":"0.00016930","RA_OF_ASC_NODE":"154.7542","CLASSIFICATION_TYPE":"U","NORAD_CAT_ID":"47745","FILE":"3276875","EPOCH":"2022-01-18T16:39:40.578624","REV_AT_EPOCH":"4998","MEAN_MOTION_DOT":"-0.00001667","INCLINATION":"53.0545","APOAPSIS":"548.416","PERIOD":"95.593","ARG_OF_PERICENTER":"86.0183","OBJECT_TYPE":"PAYLOAD","OBJECT_NAME":"STARLINK-2159","MEAN_MOTION":"15.06390351","EPHEMERIS_TYPE":"0","MEAN_ANOMALY":"274.1000","DECAY_DATE":null,"REF_FRAME":"TEME","TIME_SYSTEM":"UTC","MEAN_MOTION_DDOT":"0.0000000000000","CENTER_NAME":"EARTH","RCS_SIZE":"LARGE","TLE_LINE1":"1 47745U 21017Z   22018.69421966 -.00001667  00000-0 -93051-4 0  9998"},{"TLE_LINE2":"2 47746  53.0547 154.1691 0001790  81.5919 278.5273 15.06387769 49998","PERIAPSIS":"546.011","BSTAR":"-0.00004217600000","ELEMENT_SET_NO":"999","OBJECT_ID":"2021-017AA","SEMIMAJOR_AXIS":"6925.386","COUNTRY_CODE":"US","MEAN_ELEMENT_THEORY":"SGP4","SITE":"AFETR","GP_ID":"194154051","CLASSIFICATION_TYPE":"U","NORAD_CAT_ID":"47746","FILE":"3276875","ECCENTRICITY":"0.00017900","LAUNCH_DATE":"2021-03-04","RA_OF_ASC_NODE":"154.1691","OBJECT_TYPE":"PAYLOAD","OBJECT_NAME":"STARLINK-2160","EPHEMERIS_TYPE":"0","MEAN_MOTION":"15.06387769","MEAN_ANOMALY":"278.5273","DECAY_DATE":null,"EPOCH":"2022-01-18T19:40:08.446944","REV_AT_EPOCH":"4999","MEAN_MOTION_DOT":"-0.00000910","INCLINATION":"53.0547","APOAPSIS":"548.491","ARG_OF_PERICENTER":"81.5919","PERIOD":"95.593","TLE_LINE1":"1 47746U 21017AA  22018.81954221 -.00000910  00000-0 -42176-4 0  9990","REF_FRAME":"TEME","TIME_SYSTEM":"UTC","MEAN_MOTION_DDOT":"0.0000000000000","CENTER_NAME":"EARTH","RCS_SIZE":"LARGE"},{"FILE":"3276875","NORAD_CAT_ID":"47747","CLASSIFICATION_TYPE":"U","RA_OF_ASC_NODE":"144.7961","ECCENTRICITY":"0.00015650","LAUNCH_DATE":"2021-03-04","OBJECT_ID":"2021-017AB","ELEMENT_SET_NO":"999","BSTAR":"-0.00000599510000","PERIAPSIS":"546.145","TLE_LINE2":"2 47747  53.0549 144.7961 0001565  89.7383 270.3785 15.06395051 50152","GP_ID":"194154302","SITE":"AFETR","MEAN_ELEMENT_THEORY":"SGP4","COUNTRY_CODE":"US","SEMIMAJOR_AXIS":"6925.364","TLE_LINE1":"1 47747U 21017AB  22018.68407807 -.00000371  00000-0 -59951-5 0  9990","RCS_SIZE":"LARGE","MEAN_MOTION_DDOT":"0.0000000000000","TIME_SYSTEM":"UTC","CENTER_NAME":"EARTH","REF_FRAME":"TEME","DECAY_DATE":null,"MEAN_ANOMALY":"270.3785","EPHEMERIS_TYPE":"0","MEAN_MOTION":"15.06395051","OBJECT_NAME":"STARLINK-2161","OBJECT_TYPE":"PAYLOAD","PERIOD":"95.592","ARG_OF_PERICENTER":"89.7383","APOAPSIS":"548.313","INCLINATION":"53.0549","MEAN_MOTION_DOT":"-0.00000371","REV_AT_EPOCH":"5015","EPOCH":"2022-01-18T16:25:04.345248"},{"OBJECT_TYPE":"PAYLOAD","OBJECT_NAME":"STARLINK-2162","EPHEMERIS_TYPE":"0","MEAN_MOTION":"15.06402043","DECAY_DATE":null,"MEAN_ANOMALY":"273.6239","EPOCH":"2022-01-18T14:38:54.530304","REV_AT_EPOCH":"5011","MEAN_MOTION_DOT":"0.00000331","INCLINATION":"53.0549","APOAPSIS":"548.261","ARG_OF_PERICENTER":"86.4924","PERIOD":"95.592","TLE_LINE1":"1 47748U 21017AC  22018.61035336  .00000331  00000-0  41104-4 0  9992","REF_FRAME":"TEME","TIME_SYSTEM":"UTC","MEAN_MOTION_DDOT":"0.0000000000000","CENTER_NAME":"EARTH","RCS_SIZE":"LARGE","TLE_LINE2":"2 47748  53.0549 145.1290 0001522  86.4924 273.6239 15.06402043 50117","PERIAPSIS":"546.153","BSTAR":"0.00004110400000","ELEMENT_SET_NO":"999","OBJECT_ID":"2021-017AC","SEMIMAJOR_AXIS":"6925.342","COUNTRY_CODE":"US","MEAN_ELEMENT_THEORY":"SGP4","SITE":"AFETR","GP_ID":"194124957","CLASSIFICATION_TYPE":"U","NORAD_CAT_ID":"47748","FILE":"3276616","ECCENTRICITY":"0.00015220","LAUNCH_DATE":"2021-03-04","RA_OF_ASC_NODE":"145.1290"},{"TLE_LINE2":"2 47749  53.0545 144.1514 0001387  76.6758 283.4386 15.06393163 50144","PERIAPSIS":"546.274","BSTAR":"-0.00004008700000","ELEMENT_SET_NO":"999","OBJECT_ID":"2021-017AD","SEMIMAJOR_AXIS":"6925.370","COUNTRY_CODE":"US","MEAN_ELEMENT_THEORY":"SGP4","SITE":"AFETR","GP_ID":"194155782","CLASSIFICATION_TYPE":"U","NORAD_CAT_ID":"47749","FILE":"3276875","ECCENTRICITY":"0.00013870","LAUNCH_DATE":"2021-03-04","RA_OF_ASC_NODE":"144.1514","OBJECT_TYPE":"PAYLOAD","OBJECT_NAME":"STARLINK-2163","EPHEMERIS_TYPE":"0","MEAN_MOTION":"15.06393163","MEAN_ANOMALY":"283.4386","DECAY_DATE":null,"EPOCH":"2022-01-18T19:46:45.884352","REV_AT_EPOCH":"5014","MEAN_MOTION_DOT":"-0.00000878","INCLINATION":"53.0545","APOAPSIS":"548.195","ARG_OF_PERICENTER":"76.6758","PERIOD":"95.593","TLE_LINE1":"1 47749U 21017AD  22018.82414218 -.00000878  00000-0 -40087-4 0  9993","REF_FRAME":"TEME","CENTER_NAME":"EARTH","MEAN_MOTION_DDOT":"0.0000000000000","TIME_SYSTEM":"UTC","RCS_SIZE":"LARGE"},{"ELEMENT_SET_NO":"999","OBJECT_ID":"2021-017AE","PERIAPSIS":"546.297","TLE_LINE2":"2 47750  53.0563 144.8641 0001362  79.7791 280.3351 15.06391362 50123","BSTAR":"0.00001168800000","COUNTRY_CODE":"US","SITE":"AFETR","GP_ID":"194154552","MEAN_ELEMENT_THEORY":"SGP4","SEMIMAJOR_AXIS":"6925.375","FILE":"3276875","CLASSIFICATION_TYPE":"U","NORAD_CAT_ID":"47750","ECCENTRICITY":"0.00013620","LAUNCH_DATE":"2021-03-04","RA_OF_ASC_NODE":"144.8641","MEAN_ANOMALY":"280.3351","DECAY_DATE":null,"OBJECT_TYPE":"PAYLOAD","EPHEMERIS_TYPE":"0","MEAN_MOTION":"15.06391362","OBJECT_NAME":"STARLINK-2164","INCLINATION":"53.0563","MEAN_MOTION_DOT":"-0.00000107","ARG_OF_PERICENTER":"79.7791","PERIOD":"95.593","APOAPSIS":"548.183","EPOCH":"2022-01-18T16:03:50.695200","REV_AT_EPOCH":"5012","TLE_LINE1":"1 47750U 21017AE  22018.66933675 -.00000107  00000-0  11688-4 0  9999","MEAN_MOTION_DDOT":"0.0000000000000","CENTER_NAME":"EARTH","TIME_SYSTEM":"UTC","REF_FRAME":"TEME","RCS_SIZE":"LARGE"},{"SEMIMAJOR_AXIS":"6925.390","MEAN_ELEMENT_THEORY":"SGP4","GP_ID":"194154803","SITE":"AFETR","COUNTRY_CODE":"US","BSTAR":"-0.00004682300000","TLE_LINE2":"2 47751  53.0537 134.1080 0001339  74.4308 285.6828 15.06386325 50292","PERIAPSIS":"546.328","OBJECT_ID":"2021-017AF","ELEMENT_SET_NO":"999","RA_OF_ASC_NODE":"134.1080","ECCENTRICITY":"0.00013390","LAUNCH_DATE":"2021-03-04","NORAD_CAT_ID":"47751","CLASSIFICATION_TYPE":"U","FILE":"3276875","REV_AT_EPOCH":"5029","EPOCH":"2022-01-18T19:58:43.023360","APOAPSIS":"548.183","PERIOD":"95.593","ARG_OF_PERICENTER":"74.4308","MEAN_MOTION_DOT":"-0.00000978","INCLINATION":"53.0537","OBJECT_NAME":"STARLINK-2168","MEAN_MOTION":"15.06386325","EPHEMERIS_TYPE":"0","OBJECT_TYPE":"PAYLOAD","DECAY_DATE":null,"MEAN_ANOMALY":"285.6828","RCS_SIZE":"LARGE","REF_FRAME":"TEME","CENTER_NAME":"EARTH","MEAN_MOTION_DDOT":"0.0000000000000","TIME_SYSTEM":"UTC","TLE_LINE1":"1 47751U 21017AF  22018.83244240 -.00000978  00000-0 -46823-4 0  9998"}];
